GAOFEN-2                
1 40118U 14049A   26166.21688528  .00000938  00000+0  12822-3 0  9990
2 40118  98.0116 230.4256 0006040 234.3918 125.6732 14.80898373638940
GAOFEN-3                
1 41727U 16049A   26166.21076961  .00000000  00000+0  13132-4 0  9997
2 41727  98.4006 174.0264 0001348  99.8569 260.2773 14.42215291518367
GAOFEN-1 04             
1 43262U 18031D   26166.21921381  .00001063  00000+0  16007-3 0  9994
2 43262  98.0535 228.8007 0002256  84.4713 275.6753 14.76478590442396
GAOFEN-11 01            
1 43585U 18063A   26166.17879554  .00013865  00000+0  20637-3 0  9993
2 43585  97.1299 233.0635 0003254   7.0980 353.0320 15.55237763440035
GAOFEN-10R              
1 44622U 19066A   26166.19719211  .00001002  00000+0  12980-3 0  9997
2 44622  98.0496 119.7619 0006543 133.0277 227.1485 14.83056818362083
GAOFEN-12 01            
1 44819U 19082A   26166.18725472  .00000338  00000+0  50804-4 0  9997
2 44819  97.8100 172.6195 0002332  72.7243 287.4225 14.80457115353792
GAOFEN-12 02            
1 48079U 21026A   26166.19809902  .00000304  00000+0  46896-4 0  9991
2 48079  97.9928 164.3868 0003569 230.0463 130.0435 14.80294726281461
GAOFEN-3 02             
1 49495U 21109A   26166.17570632 -.00000024  00000+0  57762-5 0  9994
2 49495  98.4082 174.3008 0003071  22.2870 337.8453 14.42216814240023
GAOFEN-12 03            
1 52912U 22069A   26166.22765750  .00000599  00000+0  85893-4 0  9992
2 52912  97.8290  54.1480 0001944 103.6390 256.5038 14.80031227214327
GAOFEN-12 04            
1 57654U 23123A   26166.17699623  .00000867  00000+0  12079-3 0  9994
2 57654  97.9126  84.2236 0001794  84.1766 275.9650 14.80225369152339
