{
 "generated_at": "2026-06-15T10:55:27Z",
 "sources": [
  {
   "name": "CelesTrak",
   "url": "https://celestrak.org/NORAD/elements/",
   "license": "frei verfügbar; Attribution. Ursprünglich USSPACECOM/Space-Track."
  },
  {
   "name": "GCAT (J. McDowell, planet4589.org)",
   "url": "https://planet4589.org/space/gcat/",
   "license": "CC-BY 4.0"
  }
 ],
 "satellites": [
  {
   "norad": 43262,
   "name": "GAOFEN-1 04",
   "intl": "2018-031D",
   "group": "resource",
   "gcat": {
    "class": "C",
    "category": "IMG",
    "owner": "CNSAS",
    "state": "CN"
   },
   "omm": {
    "OBJECT_NAME": "GAOFEN-1 04",
    "OBJECT_ID": "2018-031D",
    "EPOCH": "2026-06-15T05:15:40.073184",
    "MEAN_MOTION": 14.7647859,
    "ECCENTRICITY": 0.0002256,
    "INCLINATION": 98.0535,
    "RA_OF_ASC_NODE": 228.8007,
    "ARG_OF_PERICENTER": 84.4713,
    "MEAN_ANOMALY": 275.6753,
    "EPHEMERIS_TYPE": 0,
    "CLASSIFICATION_TYPE": "U",
    "NORAD_CAT_ID": 43262,
    "ELEMENT_SET_NO": 999,
    "REV_AT_EPOCH": 44239,
    "BSTAR": 0.00016007,
    "MEAN_MOTION_DOT": 0.00001063,
    "MEAN_MOTION_DDOT": 0
   }
  },
  {
   "norad": 44622,
   "name": "GAOFEN-10R",
   "intl": "2019-066A",
   "group": "resource",
   "gcat": {
    "class": null,
    "category": null,
    "owner": null,
    "state": null
   },
   "omm": {
    "OBJECT_NAME": "GAOFEN-10R",
    "OBJECT_ID": "2019-066A",
    "EPOCH": "2026-06-15T04:43:57.398304",
    "MEAN_MOTION": 14.83056818,
    "ECCENTRICITY": 0.0006543,
    "INCLINATION": 98.0496,
    "RA_OF_ASC_NODE": 119.7619,
    "ARG_OF_PERICENTER": 133.0277,
    "MEAN_ANOMALY": 227.1485,
    "EPHEMERIS_TYPE": 0,
    "CLASSIFICATION_TYPE": "U",
    "NORAD_CAT_ID": 44622,
    "ELEMENT_SET_NO": 999,
    "REV_AT_EPOCH": 36208,
    "BSTAR": 0.0001298,
    "MEAN_MOTION_DOT": 0.00001002,
    "MEAN_MOTION_DDOT": 0
   }
  },
  {
   "norad": 43585,
   "name": "GAOFEN-11 01",
   "intl": "2018-063A",
   "group": "resource",
   "gcat": {
    "class": null,
    "category": null,
    "owner": null,
    "state": null
   },
   "omm": {
    "OBJECT_NAME": "GAOFEN-11 01",
    "OBJECT_ID": "2018-063A",
    "EPOCH": "2026-06-15T04:17:27.934656",
    "MEAN_MOTION": 15.55237763,
    "ECCENTRICITY": 0.0003254,
    "INCLINATION": 97.1299,
    "RA_OF_ASC_NODE": 233.0635,
    "ARG_OF_PERICENTER": 7.098,
    "MEAN_ANOMALY": 353.032,
    "EPHEMERIS_TYPE": 0,
    "CLASSIFICATION_TYPE": "U",
    "NORAD_CAT_ID": 43585,
    "ELEMENT_SET_NO": 999,
    "REV_AT_EPOCH": 44003,
    "BSTAR": 0.00020637,
    "MEAN_MOTION_DOT": 0.00013865,
    "MEAN_MOTION_DDOT": 0
   }
  },
  {
   "norad": 44819,
   "name": "GAOFEN-12 01",
   "intl": "2019-082A",
   "group": "resource",
   "gcat": {
    "class": null,
    "category": null,
    "owner": null,
    "state": null
   },
   "omm": {
    "OBJECT_NAME": "GAOFEN-12 01",
    "OBJECT_ID": "2019-082A",
    "EPOCH": "2026-06-15T04:29:38.807808",
    "MEAN_MOTION": 14.80457115,
    "ECCENTRICITY": 0.0002332,
    "INCLINATION": 97.81,
    "RA_OF_ASC_NODE": 172.6195,
    "ARG_OF_PERICENTER": 72.7243,
    "MEAN_ANOMALY": 287.4225,
    "EPHEMERIS_TYPE": 0,
    "CLASSIFICATION_TYPE": "U",
    "NORAD_CAT_ID": 44819,
    "ELEMENT_SET_NO": 999,
    "REV_AT_EPOCH": 35379,
    "BSTAR": 0.000050804,
    "MEAN_MOTION_DOT": 0.00000338,
    "MEAN_MOTION_DDOT": 0
   }
  },
  {
   "norad": 48079,
   "name": "GAOFEN-12 02",
   "intl": "2021-026A",
   "group": "resource",
   "gcat": {
    "class": "D",
    "category": "IMG-R",
    "owner": "ZLZB",
    "state": "CN"
   },
   "omm": {
    "OBJECT_NAME": "GAOFEN-12 02",
    "OBJECT_ID": "2021-026A",
    "EPOCH": "2026-06-15T04:45:15.755328",
    "MEAN_MOTION": 14.80294726,
    "ECCENTRICITY": 0.0003569,
    "INCLINATION": 97.9928,
    "RA_OF_ASC_NODE": 164.3868,
    "ARG_OF_PERICENTER": 230.0463,
    "MEAN_ANOMALY": 130.0435,
    "EPHEMERIS_TYPE": 0,
    "CLASSIFICATION_TYPE": "U",
    "NORAD_CAT_ID": 48079,
    "ELEMENT_SET_NO": 999,
    "REV_AT_EPOCH": 28146,
    "BSTAR": 0.000046896,
    "MEAN_MOTION_DOT": 0.00000304,
    "MEAN_MOTION_DDOT": 0
   }
  },
  {
   "norad": 52912,
   "name": "GAOFEN-12 03",
   "intl": "2022-069A",
   "group": "resource",
   "gcat": {
    "class": "D",
    "category": "IMG-R",
    "owner": "ZLZB",
    "state": "CN"
   },
   "omm": {
    "OBJECT_NAME": "GAOFEN-12 03",
    "OBJECT_ID": "2022-069A",
    "EPOCH": "2026-06-15T05:27:49.608000",
    "MEAN_MOTION": 14.80031227,
    "ECCENTRICITY": 0.0001944,
    "INCLINATION": 97.829,
    "RA_OF_ASC_NODE": 54.148,
    "ARG_OF_PERICENTER": 103.639,
    "MEAN_ANOMALY": 256.5038,
    "EPHEMERIS_TYPE": 0,
    "CLASSIFICATION_TYPE": "U",
    "NORAD_CAT_ID": 52912,
    "ELEMENT_SET_NO": 999,
    "REV_AT_EPOCH": 21432,
    "BSTAR": 0.000085893,
    "MEAN_MOTION_DOT": 0.00000599,
    "MEAN_MOTION_DDOT": 0
   }
  },
  {
   "norad": 57654,
   "name": "GAOFEN-12 04",
   "intl": "2023-123A",
   "group": "resource",
   "gcat": {
    "class": "D",
    "category": "IMG-R",
    "owner": "ZLZB",
    "state": "CN"
   },
   "omm": {
    "OBJECT_NAME": "GAOFEN-12 04",
    "OBJECT_ID": "2023-123A",
    "EPOCH": "2026-06-15T04:14:52.474272",
    "MEAN_MOTION": 14.80225369,
    "ECCENTRICITY": 0.0001794,
    "INCLINATION": 97.9126,
    "RA_OF_ASC_NODE": 84.2236,
    "ARG_OF_PERICENTER": 84.1766,
    "MEAN_ANOMALY": 275.965,
    "EPHEMERIS_TYPE": 0,
    "CLASSIFICATION_TYPE": "U",
    "NORAD_CAT_ID": 57654,
    "ELEMENT_SET_NO": 999,
    "REV_AT_EPOCH": 15233,
    "BSTAR": 0.00012079,
    "MEAN_MOTION_DOT": 0.00000867,
    "MEAN_MOTION_DDOT": 0
   }
  },
  {
   "norad": 40118,
   "name": "GAOFEN-2",
   "intl": "2014-049A",
   "group": "resource",
   "gcat": {
    "class": "C",
    "category": "IMG",
    "owner": "CNSAS",
    "state": "CN"
   },
   "omm": {
    "OBJECT_NAME": "GAOFEN-2",
    "OBJECT_ID": "2014-049A",
    "EPOCH": "2026-06-15T05:12:18.888192",
    "MEAN_MOTION": 14.80898373,
    "ECCENTRICITY": 0.000604,
    "INCLINATION": 98.0116,
    "RA_OF_ASC_NODE": 230.4256,
    "ARG_OF_PERICENTER": 234.3918,
    "MEAN_ANOMALY": 125.6732,
    "EPHEMERIS_TYPE": 0,
    "CLASSIFICATION_TYPE": "U",
    "NORAD_CAT_ID": 40118,
    "ELEMENT_SET_NO": 999,
    "REV_AT_EPOCH": 63894,
    "BSTAR": 0.00012822,
    "MEAN_MOTION_DOT": 0.00000938,
    "MEAN_MOTION_DDOT": 0
   }
  },
  {
   "norad": 41727,
   "name": "GAOFEN-3",
   "intl": "2016-049A",
   "group": "resource",
   "gcat": {
    "class": "C",
    "category": "IMG-R",
    "owner": "GWHYZ",
    "state": "CN"
   },
   "omm": {
    "OBJECT_NAME": "GAOFEN-3",
    "OBJECT_ID": "2016-049A",
    "EPOCH": "2026-06-15T05:03:30.494304",
    "MEAN_MOTION": 14.42215291,
    "ECCENTRICITY": 0.0001348,
    "INCLINATION": 98.4006,
    "RA_OF_ASC_NODE": 174.0264,
    "ARG_OF_PERICENTER": 99.8569,
    "MEAN_ANOMALY": 260.2773,
    "EPHEMERIS_TYPE": 0,
    "CLASSIFICATION_TYPE": "U",
    "NORAD_CAT_ID": 41727,
    "ELEMENT_SET_NO": 999,
    "REV_AT_EPOCH": 51836,
    "BSTAR": 0.000013132,
    "MEAN_MOTION_DOT": 0,
    "MEAN_MOTION_DDOT": 0
   }
  },
  {
   "norad": 49495,
   "name": "GAOFEN-3 02",
   "intl": "2021-109A",
   "group": "sar",
   "gcat": {
    "class": "C",
    "category": "IMG-R",
    "owner": "GWHYZ",
    "state": "CN"
   },
   "omm": {
    "OBJECT_NAME": "GAOFEN-3 02",
    "OBJECT_ID": "2021-109A",
    "EPOCH": "2026-06-15T04:13:01.026048",
    "MEAN_MOTION": 14.42216814,
    "ECCENTRICITY": 0.0003071,
    "INCLINATION": 98.4082,
    "RA_OF_ASC_NODE": 174.3008,
    "ARG_OF_PERICENTER": 22.287,
    "MEAN_ANOMALY": 337.8453,
    "EPHEMERIS_TYPE": 0,
    "CLASSIFICATION_TYPE": "U",
    "NORAD_CAT_ID": 49495,
    "ELEMENT_SET_NO": 999,
    "REV_AT_EPOCH": 24002,
    "BSTAR": 0.0000057762,
    "MEAN_MOTION_DOT": -2.4e-7,
    "MEAN_MOTION_DDOT": 0
   }
  }
 ]
}
